CELESTIS-02 & TAURUS R/B
1 25160U 98007D   25103.47157047  .00000287  00000+0  18357-3 0  9997
2 25160 108.0002 184.9046 0061255 149.2045 222.2191 14.22308864409418
